#aV2020  8  2  0  0  0.00000000     288 DD+AD WGS84 FIT  NGA
## 2117      0.00000000   300.00000000 59063 0.0000000000000
+   31     1  2  3  4  5  6  7  8  9 10 11 12 13 15 16 17 18
+         19 20 21 22 23 24 25 26 27 28 29 30 31 32  0  0  0
+          0  0  0  0  0  0  0  0  0  0  0  0  0  0  0  0  0
+          0  0  0  0  0  0  0  0  0  0  0  0  0  0  0  0  0
+          0  0  0  0  0  0  0  0  0  0  0  0  0  0  0  0  0
++         2  2  2  2  2  2  2  2  2  2  2  2  2  2  2  2  2
++         2  2  2  2  2  2  2  2  2  2  2  2  2  2  0  0  0
++         0  0  0  0  0  0  0  0  0  0  0  0  0  0  0  0  0
++         0  0  0  0  0  0  0  0  0  0  0  0  0  0  0  0  0
++         0  0  0  0  0  0  0  0  0  0  0  0  0  0  0  0  0
%c cc cc ccc ccc cccc cccc cccc cccc ccccc ccccc ccccc ccccc
%c cc cc ccc ccc cccc cccc cccc cccc ccccc ccccc ccccc ccccc
%f  0.0000000  0.000000000  0.00000000000  0.000000000000000
%f  0.0000000  0.000000000  0.00000000000  0.000000000000000
%i    0    0    0    0      0      0      0      0         0
%i    0    0    0    0      0      0      0      0         0
/*      NGA, ST. LOUIS,MO.                                  
/*   EPHEMERIS COMPUTED FROM 2 DAYS OF DATA                 
/*   EPOCHA v5 SMOOTHER                                     
/*   G1762 IERS2010 SATAF SATAPC                            
*  2020  8  2  0 55  0.00000000
P  1 -13583.938506  10198.345349  20090.265067     30.838731                    
V  1   -749.814695 -26089.898399  12911.320508      0.031190                    
P  2  13498.762120  13292.345495 -17995.463698   -496.093135                    
V  2   -128.367038  24212.807504  17145.282666     -0.055670                    
P  3 -23440.732014  12288.840232   1346.847068   -257.690821                    
V  3    219.567576  -3254.116887  31893.618319     -0.112930                    
P  4 -17614.484536   4871.635778 -19273.828534   -119.615232                    
V  4 -20042.938894 -14131.220517  14702.472930     -0.044884                    
P  5  19620.249037   2864.242383 -17910.487385    -17.916641                    
V  5 -18260.814397  13068.585856 -17868.646993     -0.008277                    
P  6   6539.896691  23712.752004  -9915.866198   -310.653213                    
V  6  -2064.547165  12641.923339  28763.223822     -0.045960                    
P  7  -6010.724279  24255.663305  -7909.883104   -340.805011                    
V  7  -3168.257104 -10677.858520 -29647.473530     -0.085630                    
P  8 -23659.140760  -4158.140346  11622.968371    -43.042318                    
V  8 -11791.058988  -8892.254147 -26951.863010     -0.012927                    
P  9  -6516.438734  14001.806657 -21659.104883   -263.579414                    
V  9 -23960.484291 -13313.970078  -1417.025461     -0.062298                    
P 10   1000.026416 -16887.719325  20501.722326   -416.220335                    
V 10  22958.156083 -11992.932611 -11284.467608     -0.104454                    
P 11 -16879.629823    745.143980  19945.587996   -204.430498                    
V 11 -10757.314023 -24457.889629  -8334.031140      0.106052                    
P 12  24272.296756 -10402.095334   1693.708099     86.022726                    
V 12  -1153.349113   3233.303494  32131.993092     -0.049278                    
P 13  22683.296258  12785.102356   5391.345971     32.026505                    
V 13   4027.465706   6200.950209 -30857.261061      0.033784                    
P 15  23984.361250   1397.110895  11399.692086   -213.469452                    
V 15  12356.177752   8870.286414 -25958.015308      0.025732                    
P 16 -21342.759350  -2202.344309 -16159.790309   -190.308033                    
V 16  17589.897125  -9388.153959 -21821.008156     -0.048657                    
P 17   9863.565932  19234.734393  15886.556312    304.869545                    
V 17 -16836.441247  -9600.688220  22642.866388      0.055836                    
P 18   6172.655682 -24591.172961  -7867.690403    260.480174                    
V 18   2261.823595  10047.920273 -29713.581948      0.086907                    
P 19  16180.197878  19064.209300   8733.598276   -124.049931                    
V 19 -10437.927274  -5160.543141  29541.624726      0.050624                    
P 20  11385.010516 -20319.005447  12469.669983    527.154743                    
V 20  14690.585944  -7309.776283 -25399.178506     -0.001106                    
P 21  -9633.318017 -22454.716316  11554.625276     30.781469                    
V 21   1315.287831 -13548.819905 -26710.242051      0.044480                    
P 22 -23564.899693   7847.364554   9409.455996   -767.588302                    
V 22   7711.735943  -9516.875631  28000.797559      0.030037                    
P 23  10896.281196 -18896.382408  15122.218834     25.718653                    
V 23  17530.819597  -8214.146834 -22855.274730      0.134598                    
P 24  14645.788809  -7837.765976  20452.019873    -16.531275                    
V 24   2703.782143  26490.024615   8506.228567     -0.005890                    
P 25  18693.283634 -17003.805287  -7972.162873     30.255644                    
V 25   9893.014285  -2571.619695  29811.102955      0.045702                    
P 26 -10661.030430 -11582.635714 -21441.410583    253.970719                    
V 26  22978.780149 -14527.659629  -3357.512639      0.066916                    
P 27 -23535.677194 -12606.969228   1405.327096   -360.801402                    
V 27   -673.832266  -2702.594358 -31840.923528     -0.094356                    
P 28   -816.080024  16334.158325  21540.009427    693.763471                    
V 28 -23808.833557  10272.250096  -8790.634182     -0.037830                    
P 29  10972.008834 -10168.307218 -21995.556873   -163.510199                    
V 29  22799.268191  15811.342369   4031.676949     -0.083940                    
P 30    665.137000  26340.401196   2249.773775   -273.989428                    
V 30  -3821.166030   2684.009646 -31201.814095     -0.075493                    
P 31  -7485.511118 -22451.868850 -11621.828930    -59.470479                    
V 31   3282.806426 -14770.339801  26968.548337     -0.024364                    
P 32 -11742.623695 -18796.394619  14835.064322    326.394442                    
V 32  17174.201462   7515.528360  23103.193811      0.057626                    
EOF
